NORAD_CAT_ID,OBJECT_NAME,OBJECT_TYPE,EPOCH,MEAN_MOTION,ECCENTRICITY,INCLINATION,RA_OF_ASC_NODE,ARG_OF_PERICENTER,MEAN_ANOMALY,BSTAR,MEAN_MOTION_DOT,MEAN_MOTION_DDOT,TLE_LINE0,TLE_LINE1,TLE_LINE2,SEMIMAJOR_AXIS,PERIOD,APOGEE,PERIGEE,DECAYED
53162.0,STARLINK-4114,PAYLOAD,2024-05-07 18:25:26,15.0883124,0.0001005,53.217,296.0193,89.8595,270.2512,-7.7892e-05,-1.527e-05,0.0,0 STARLINK-4114,1 53162U 22083AG  24128.76766754 -.00001527  00000-0 -77892-4 0  9991,2 53162  53.2170 296.0193 0001005  89.8595 270.2512 15.08831240100706,6917.907,95.438,540.467,539.077,0.0
53162.0,STARLINK-4114,PAYLOAD,2024-05-08 03:57:45,15.08835546,0.0001022,53.2176,294.2343,83.8998,276.211,1.1478e-05,-1.05e-06,0.0,0 STARLINK-4114,1 53162U 22083AG  24129.16510446 -.00000105  00000-0  11478-4 0  9999,2 53162  53.2176 294.2343 0001022  83.8998 276.2110 15.08835546100768,6917.894,95.438,540.466,539.052,0.0
53162.0,STARLINK-4114,PAYLOAD,2024-05-08 16:40:49,15.08843978,9.77e-05,53.2168,291.8553,90.7938,269.3166,6.5162e-05,7.5e-06,0.0,0 STARLINK-4114,1 53162U 22083AG  24129.69501973  .00000750  00000-0  65162-4 0  9996,2 53162  53.2168 291.8553 0000977  90.7938 269.3166 15.08843978100845,6917.868,95.437,540.409,539.057,0.0
53162.0,STARLINK-4114,PAYLOAD,2024-05-09 14:56:14,15.08833848,0.0001062,53.217,287.6923,82.6498,277.4615,0.00018401,2.641e-05,0.0,0 STARLINK-4114,1 53162U 22083AG  24130.62238746  .00002641  00000-0  18401-3 0  9990,2 53162  53.2170 287.6923 0001062  82.6498 277.4615 15.08833848100359,6917.899,95.438,540.499,539.03,0.0
53162.0,STARLINK-4114,PAYLOAD,2024-05-09 18:07:00,15.08840294,0.0001093,53.2164,287.0964,79.5823,280.5292,0.00021937,3.205e-05,0.0,0 STARLINK-4114,1 53162U 22083AG  24130.75486438  .00003205  00000-0  21937-3 0  9992,2 53162  53.2164 287.0964 0001093  79.5823 280.5292 15.08840294101004,6917.879,95.438,540.501,538.988,0.0
53162.0,STARLINK-4114,PAYLOAD,2024-05-10 14:47:01,15.08839676,0.0001243,53.218,283.23,85.1837,274.9297,8.8347e-05,1.118e-05,0.0,0 STARLINK-4114,1 53162U 22083AG  24131.61598709  .00001118  00000-0  88347-4 0  9993,2 53162  53.2180 283.2300 0001243  85.1837 274.9297 15.08839676100507,6917.881,95.438,540.606,538.886,0.0
53162.0,STARLINK-4114,PAYLOAD,2024-05-10 19:33:10,15.08851084,0.0001043,53.217,282.3337,107.1317,252.9789,0.00011618,1.562e-05,0.0,0 STARLINK-4114,1 53162U 22083AG  24131.81469980  .00001562  00000-0  11618-3 0  9992,2 53162  53.2170 282.3337 0001043 107.1317 252.9789 15.08851084101164,6917.847,95.437,540.433,538.99,0.0
53162.0,STARLINK-4114,PAYLOAD,2024-05-11 19:23:58,15.0877601,0.0001181,53.2168,277.8795,82.69,277.4227,-0.0016092,-0.00025762,0.0,0 STARLINK-4114,1 53162U 22083AG  24132.80831243 -.00025762  00000-0 -16092-2 0  9997,2 53162  53.2168 277.8795 0001181  82.6900 277.4227 15.08776010101317,6918.076,95.442,540.758,539.124,0.0
53162.0,STARLINK-4114,PAYLOAD,2024-05-12 12:53:16,15.08776778,0.0001996,53.2154,274.6055,120.8882,239.2306,-0.00052335,-8.593e-05,0.0,0 STARLINK-4114,1 53162U 22083AG  24133.53699481 -.00008593  00000-0 -52335-3 0  9998,2 53162  53.2154 274.6055 0001996 120.8882 239.2306 15.08776778101421,6918.074,95.442,541.319,538.558,0.0
53162.0,STARLINK-4114,PAYLOAD,2024-05-12 14:28:39,15.08777081,0.0002054,53.2178,274.3102,121.8776,238.2416,-0.00045854,-7.566e-05,0.0,0 STARLINK-4114,1 53162U 22083AG  24133.60323821 -.00007566  00000-0 -45854-3 0  9995,2 53162  53.2178 274.3102 0002054 121.8776 238.2416 15.08777081100806,6918.073,95.442,541.359,538.517,0.0
53162.0,STARLINK-4114,PAYLOAD,2024-05-12 19:14:50,15.08778157,0.0001338,53.2165,273.4167,91.2294,268.8852,-0.00017365,-3.046e-05,0.0,0 STARLINK-4114,1 53162U 22083AG  24133.80197099 -.00003046  00000-0 -17365-3 0  9998,2 53162  53.2165 273.4167 0001338  91.2294 268.8852 15.08778157100833,6918.069,95.441,540.86,539.009,0.0
53162.0,STARLINK-4114,PAYLOAD,2024-05-13 09:33:18,15.08817812,0.0001967,53.2175,270.7412,98.133,261.9885,0.0016248,0.0002565,0.0,0 STARLINK-4114,1 53162U 22083AG  24134.39813613  .00025650  00000-0  16248-2 0  9991,2 53162  53.2175 270.7412 0001967  98.1330 261.9885 15.08817812101554,6917.948,95.439,541.174,538.452,0.0
53162.0,STARLINK-4114,PAYLOAD,2024-05-13 15:54:51,15.08840656,0.0002481,53.2175,269.5514,87.4385,272.6891,0.0015872,0.00025064,0.0,0 STARLINK-4114,1 53162U 22083AG  24134.66309086  .00025064  00000-0  15872-2 0  9996,2 53162  53.2175 269.5514 0002481  87.4385 272.6891 15.08840656101598,6917.878,95.438,541.46,538.027,0.0
53162.0,STARLINK-4114,PAYLOAD,2024-05-14 12:34:48,15.0890815,0.0001537,53.2159,265.6831,71.3928,288.7231,0.0013173,0.00020778,0.0,0 STARLINK-4114,1 53162U 22083AG  24135.52417137  .00020778  00000-0  13173-2 0  9998,2 53162  53.2159 265.6831 0001537  71.3928 288.7231 15.08908150101720,6917.672,95.433,540.6,538.474,0.0
53162.0,STARLINK-4114,PAYLOAD,2024-05-14 15:45:33,15.0893113,0.000155,53.2164,265.0902,69.291,290.8248,0.0014472,0.00022877,0.0,0 STARLINK-4114,1 53162U 22083AG  24135.65663990  .00022877  00000-0  14472-2 0  9997,2 53162  53.2164 265.0902 0001550  69.2910 290.8248 15.08931130101749,6917.602,95.432,540.539,538.395,0.0
53162.0,STARLINK-4114,PAYLOAD,2024-05-15 01:17:51,15.08906985,0.0001892,53.2162,263.3079,81.8253,278.2954,5.6183e-05,6.08e-06,0.0,0 STARLINK-4114,1 53162U 22083AG  24136.05406989  .00000608  00000-0  56183-4 0  9990,2 53162  53.2162 263.3079 0001892  81.8253 278.2954 15.08906985101803,6917.676,95.433,540.849,538.232,0.0
53162.0,STARLINK-4114,PAYLOAD,2024-05-15 12:25:33,15.08859413,0.0001341,53.2166,261.2265,93.1198,266.9948,0.00082627,0.00012894,0.0,0 STARLINK-4114,1 53162U 22083AG  24136.51774569  .00012894  00000-0  82627-3 0  9994,2 53162  53.2166 261.2265 0001341  93.1198 266.9948 15.08859413101871,6917.821,95.436,540.614,538.758,0.0
53162.0,STARLINK-4114,PAYLOAD,2024-05-15 14:00:56,15.0885818,0.0001362,53.2164,260.9291,90.513,269.6018,0.0011877,0.00018674,0.0,0 STARLINK-4114,1 53162U 22083AG  24136.58398528  .00018674  00000-0  11877-2 0  9998,2 53162  53.2164 260.9291 0001362  90.5130 269.6018 15.08858180101254,6917.825,95.436,540.632,538.748,0.0
53162.0,STARLINK-4114,PAYLOAD,2024-05-15 15:36:19,15.0885793,0.000137,53.2165,260.6318,91.3248,268.7901,0.0014826,0.00023398,0.0,0 STARLINK-4114,1 53162U 22083AG  24136.65022484  .00023398  00000-0  14826-2 0  9997,2 53162  53.2165 260.6318 0001370  91.3248 268.7901 15.08857930101264,6917.826,95.436,540.638,538.743,0.0
53162.0,STARLINK-4114,PAYLOAD,2024-05-16 12:16:19,15.08869672,0.0001499,53.216,256.7641,80.8055,279.3107,0.00094573,0.00014808,0.0,0 STARLINK-4114,1 53162U 22083AG  24137.51133490  .00014808  00000-0  94573-3 0  9997,2 53162  53.2160 256.7641 0001499  80.8055 279.3107 15.08869672102022,6917.79,95.436,540.692,538.618,0.0
53162.0,STARLINK-4114,PAYLOAD,2024-05-16 17:02:28,15.08885984,0.0002445,53.2147,255.87,76.8201,283.3064,0.0012356,0.00019456,0.0,0 STARLINK-4114,1 53162U 22083AG  24137.71005037  .00019456  00000-0  12356-2 0  9996,2 53162  53.2147 255.8700 0002445  76.8201 283.3064 15.08885984101427,6917.74,95.435,541.296,537.913,0.0
53162.0,STARLINK-4114,PAYLOAD,2024-05-17 12:07:06,15.08837345,0.0001627,53.2162,252.3037,90.4718,269.646,-9.0657e-05,-1.73e-05,0.0,0 STARLINK-4114,1 53162U 22083AG  24138.50493456 -.00001730  00000-0 -90657-4 0  9990,2 53162  53.2162 252.3037 0001627  90.4718 269.6460 15.08837345102173,6917.889,95.438,540.879,538.628,0.0
53162.0,STARLINK-4114,PAYLOAD,2024-05-18 13:33:16,15.08844957,0.0001543,53.2106,247.5465,84.3463,275.7705,0.00062515,9.677e-05,0.0,0 STARLINK-4114,1 53162U 22083AG  24139.56478007  .00009677  00000-0  62515-3 0  9999,2 53162  53.2106 247.5465 0001543  84.3463 275.7705 15.08844957102333,6917.865,95.437,540.798,538.663,0.0
53162.0,STARLINK-4114,PAYLOAD,2024-05-19 00:40:59,15.08838839,0.0001895,53.2164,245.4655,81.7035,278.4172,0.00029361,4.388e-05,0.0,0 STARLINK-4114,1 53162U 22083AG  24140.02846459  .00004388  00000-0  29361-3 0  9998,2 53162  53.2164 245.4655 0001895  81.7035 278.4172 15.08838839102409,6917.884,95.438,541.06,538.438,0.0
53162.0,STARLINK-4114,PAYLOAD,2024-05-19 13:24:05,15.08807408,0.0001955,53.2169,243.0841,104.8539,255.267,-0.00037937,-6.315e-05,0.0,0 STARLINK-4114,1 53162U 22083AG  24140.55840045 -.00006315  00000-0 -37937-3 0  9993,2 53162  53.2169 243.0841 0001955 104.8539 255.2670 15.08807408101850,6917.98,95.44,541.197,538.493,0.0
53162.0,STARLINK-4114,PAYLOAD,2024-05-19 16:34:52,15.08811022,0.000208,53.2168,242.4868,115.189,244.9318,-0.00017584,-3.083e-05,0.0,0 STARLINK-4114,1 53162U 22083AG  24140.69088218 -.00003083  00000-0 -17584-3 0  9999,2 53162  53.2168 242.4868 0002080 115.1890 244.9318 15.08811022102500,6917.969,95.439,541.273,538.395,0.0
53162.0,STARLINK-4114,PAYLOAD,2024-05-20 11:39:29,15.08855722,0.0001732,53.2158,238.9233,99.6485,260.4703,0.0012124,0.00019068,0.0,0 STARLINK-4114,1 53162U 22083AG  24141.48575934  .00019068  00000-0  12124-2 0  9995,2 53162  53.2158 238.9233 0001732  99.6485 260.4703 15.08855722102623,6917.832,95.437,540.896,538.499,0.0
53162.0,STARLINK-4114,PAYLOAD,2024-05-20 13:14:52,15.08877305,0.0001432,53.2164,238.6237,111.7425,248.372,0.0018557,0.00029399,0.0,0 STARLINK-4114,1 53162U 22083AG  24141.55199581  .00029399  00000-0  18557-2 0  9997,2 53162  53.2164 238.6237 0001432 111.7425 248.3720 15.08877305102005,6917.766,95.435,540.622,538.641,0.0
53162.0,STARLINK-4114,PAYLOAD,2024-05-20 16:25:38,15.08884656,0.0001492,53.2165,238.0293,112.792,247.323,0.001675,0.00026503,0.0,0 STARLINK-4114,1 53162U 22083AG  24141.68447112  .00026503  00000-0  16750-2 0  9994,2 53162  53.2165 238.0293 0001492 112.7920 247.3230 15.08884656102652,6917.744,95.435,540.641,538.577,0.0
53162.0,STARLINK-4114,PAYLOAD,2024-05-21 11:30:16,15.08848972,0.0001583,53.2174,234.4585,108.4743,251.6421,-0.00031357,-5.276e-05,0.0,0 STARLINK-4114,1 53162U 22083AG  24142.47935187 -.00005276  00000-0 -31357-3 0  9993,2 53162  53.2174 234.4585 0001583 108.4743 251.6421 15.08848972102776,6917.853,95.437,540.813,538.623,0.0
